{
  "type": "FeatureCollection",
  "features": [
    {
      "type": "Feature",
      "properties": {
        "norad_id": 41948,
        "name": "CARTOSAT-2D",
        "group": "resource",
        "lat": 1.7351954399843332,
        "lon": 49.09539523619769,
        "alt_km": 513.6475732240815,
        "timestamp": "2025-12-17T21:39:45.366140+00:00",
        "meta_object_name": "CARTOSAT-2D",
        "meta_object_id": "2017-008A",
        "meta_epoch": "2025-12-17T15:19:55.992000",
        "meta_mean_motion": 15.19309099,
        "meta_eccentricity": 0.00050271,
        "meta_inclination": 97.4387,
        "meta_ra_of_asc_node": 49.0624,
        "meta_arg_of_pericenter": 148.7559,
        "meta_mean_anomaly": 211.3975,
        "meta_ephemeris_type": 0,
        "meta_classification_type": "U",
        "meta_norad_cat_id": 41948,
        "meta_element_set_no": 999,
        "meta_rev_at_epoch": 49001,
        "meta_bstar": 0.00023295441,
        "meta_mean_motion_dot": 4.852e-05,
        "meta_mean_motion_ddot": 0,
        "tle_line1": "1 41948U 17008A   25351.63884250  .00004852  00000+0  23295-3 0  9996",
        "tle_line2": "2 41948  97.4387  49.0624 0005027 148.7559 211.3975 15.19309099490012"
      },
      "geometry": {
        "type": "Point",
        "coordinates": [
          49.09539523619769,
          1.7351954399843332
        ]
      }
    },
    {
      "type": "Feature",
      "properties": {
        "norad_id": 42063,
        "name": "SENTINEL-2B",
        "group": "resource",
        "lat": 56.326347650698004,
        "lon": -102.63999201042444,
        "alt_km": 782.8648244363758,
        "timestamp": "2025-12-17T21:39:45.366149+00:00",
        "meta_object_name": "SENTINEL-2B",
        "meta_object_id": "2017-013A",
        "meta_epoch": "2025-12-17T16:03:23.704704",
        "meta_mean_motion": 14.30818615,
        "meta_eccentricity": 0.00011591,
        "meta_inclination": 98.5715,
        "meta_ra_of_asc_node": 64.0459,
        "meta_arg_of_pericenter": 92.5504,
        "meta_mean_anomaly": 267.5812,
        "meta_ephemeris_type": 0,
        "meta_classification_type": "U",
        "meta_norad_cat_id": 42063,
        "meta_element_set_no": 999,
        "meta_rev_at_epoch": 45868,
        "meta_bstar": 0.00010001401,
        "meta_mean_motion_dot": 2.19e-06,
        "meta_mean_motion_ddot": 0,
        "tle_line1": "1 42063U 17013A   25351.66902436  .00000219  00000+0  10001-3 0  9995",
        "tle_line2": "2 42063  98.5715  64.0459 0001159  92.5504 267.5812 14.30818615458680"
      },
      "geometry": {
        "type": "Point",
        "coordinates": [
          -102.63999201042444,
          56.326347650698004
        ]
      }
    },
    {
      "type": "Feature",
      "properties": {
        "norad_id": 42767,
        "name": "CARTOSAT-2E",
        "group": "resource",
        "lat": -82.36497651799179,
        "lon": 127.07180402407252,
        "alt_km": 514.6342593261043,
        "timestamp": "2025-12-17T21:39:45.366158+00:00",
        "meta_object_name": "CARTOSAT-2E",
        "meta_object_id": "2017-036C",
        "meta_epoch": "2025-12-17T15:43:41.670624",
        "meta_mean_motion": 15.19246431,
        "meta_eccentricity": 0.00022895,
        "meta_inclination": 97.4552,
        "meta_ra_of_asc_node": 49.1784,
        "meta_arg_of_pericenter": 214.9484,
        "meta_mean_anomaly": 145.1601,
        "meta_ephemeris_type": 0,
        "meta_classification_type": "U",
        "meta_norad_cat_id": 42767,
        "meta_element_set_no": 999,
        "meta_rev_at_epoch": 47058,
        "meta_bstar": 0.00019371185,
        "meta_mean_motion_dot": 4.014e-05,
        "meta_mean_motion_ddot": 0,
        "tle_line1": "1 42767U 17036C   25351.65534341  .00004014  00000+0  19371-3 0  9992",
        "tle_line2": "2 42767  97.4552  49.1784 0002289 214.9484 145.1601 15.19246431470584"
      },
      "geometry": {
        "type": "Point",
        "coordinates": [
          127.07180402407252,
          -82.36497651799179
        ]
      }
    },
    {
      "type": "Feature",
      "properties": {
        "norad_id": 42920,
        "name": "FORMOSAT-5",
        "group": "resource",
        "lat": 41.471659013907214,
        "lon": -106.51827374133627,
        "alt_km": 725.6576727095962,
        "timestamp": "2025-12-17T21:39:45.366167+00:00",
        "meta_object_name": "FORMOSAT-5",
        "meta_object_id": "2017-049A",
        "meta_epoch": "2025-12-17T09:26:28.749984",
        "meta_mean_motion": 14.50763418,
        "meta_eccentricity": 0.00098811,
        "meta_inclination": 98.245,
        "meta_ra_of_asc_node": 65.6198,
        "meta_arg_of_pericenter": 285.8698,
        "meta_mean_anomaly": 74.1408,
        "meta_ephemeris_type": 0,
        "meta_classification_type": "U",
        "meta_norad_cat_id": 42920,
        "meta_element_set_no": 999,
        "meta_rev_at_epoch": 44031,
        "meta_bstar": 5.5751028e-05,
        "meta_mean_motion_dot": 1.76e-06,
        "meta_mean_motion_ddot": 0,
        "tle_line1": "1 42920U 17049A   25351.39338831  .00000176  00000+0  55751-4 0  9992",
        "tle_line2": "2 42920  98.2450  65.6198 0009881 285.8698  74.1408 14.50763418440319"
      },
      "geometry": {
        "type": "Point",
        "coordinates": [
          -106.51827374133627,
          41.471659013907214
        ]
      }
    },
    {
      "type": "Feature",
      "properties": {
        "norad_id": 42969,
        "name": "SENTINEL-5P",
        "group": "resource",
        "lat": -48.73258992639988,
        "lon": -59.41642538829599,
        "alt_km": 834.3280825094043,
        "timestamp": "2025-12-17T21:39:45.366177+00:00",
        "meta_object_name": "SENTINEL-5P",
        "meta_object_id": "2017-064A",
        "meta_epoch": "2025-12-17T10:03:13.683168",
        "meta_mean_motion": 14.19518686,
        "meta_eccentricity": 0.00010019,
        "meta_inclination": 98.7789,
        "meta_ra_of_asc_node": 289.9616,
        "meta_arg_of_pericenter": 89.7606,
        "meta_mean_anomaly": 270.3685,
        "meta_ephemeris_type": 0,
        "meta_classification_type": "U",
        "meta_norad_cat_id": 42969,
        "meta_element_set_no": 999,
        "meta_rev_at_epoch": 42377,
        "meta_bstar": 4.3985693e-05,
        "meta_mean_motion_dot": 4.9e-07,
        "meta_mean_motion_ddot": 0,
        "tle_line1": "1 42969U 17064A   25351.41890837  .00000049  00000+0  43986-4 0  9990",
        "tle_line2": "2 42969  98.7789 289.9616 0001001  89.7606 270.3685 14.19518686423772"
      },
      "geometry": {
        "type": "Point",
        "coordinates": [
          -59.41642538829599,
          -48.73258992639988
        ]
      }
    },
    {
      "type": "Feature",
      "properties": {
        "norad_id": 42987,
        "name": "SKYSAT-C11",
        "group": "resource",
        "lat": -77.52888404856917,
        "lon": 165.59172710559747,
        "alt_km": 431.71415789985804,
        "timestamp": "2025-12-17T21:39:45.366187+00:00",
        "meta_object_name": "SKYSAT-C11",
        "meta_object_id": "2017-068A",
        "meta_epoch": "2025-12-17T15:48:02.558880",
        "meta_mean_motion": 15.47652121,
        "meta_eccentricity": 0.00011602,
        "meta_inclination": 97.4137,
        "meta_ra_of_asc_node": 129.2724,
        "meta_arg_of_pericenter": 101.1537,
        "meta_mean_anomaly": 258.9843,
        "meta_ephemeris_type": 0,
        "meta_classification_type": "U",
        "meta_norad_cat_id": 42987,
        "meta_element_set_no": 999,
        "meta_rev_at_epoch": 45507,
        "meta_bstar": 0.0003559198,
        "meta_mean_motion_dot": 0.00018302,
        "meta_mean_motion_ddot": 0,
        "tle_line1": "1 42987U 17068A   25351.65836295  .00018302  00000+0  35592-3 0  9992",
        "tle_line2": "2 42987  97.4137 129.2724 0001160 101.1537 258.9843 15.47652121455070"
      },
      "geometry": {
        "type": "Point",
        "coordinates": [
          165.59172710559747,
          -77.52888404856917
        ]
      }
    },
    {
      "type": "Feature",
      "properties": {
        "norad_id": 42988,
        "name": "SKYSAT-C10",
        "group": "resource",
        "lat": 72.39821800271557,
        "lon": 98.49363135240235,
        "alt_km": 458.80102728137354,
        "timestamp": "2025-12-17T21:39:45.366196+00:00",
        "meta_object_name": "SKYSAT-C10",
        "meta_object_id": "2017-068B",
        "meta_epoch": "2025-12-17T15:04:16.856832",
        "meta_mean_motion": 15.32166002,
        "meta_eccentricity": 0.00054297,
        "meta_inclination": 97.4256,
        "meta_ra_of_asc_node": 122.4924,
        "meta_arg_of_pericenter": 89.9469,
        "meta_mean_anomaly": 270.2395,
        "meta_ephemeris_type": 0,
        "meta_classification_type": "U",
        "meta_norad_cat_id": 42988,
        "meta_element_set_no": 999,
        "meta_rev_at_epoch": 45454,
        "meta_bstar": 0.00029595153,
        "meta_mean_motion_dot": 9.118e-05,
        "meta_mean_motion_ddot": 0,
        "tle_line1": "1 42988U 17068B   25351.62797288  .00009118  00000+0  29595-3 0  9999",
        "tle_line2": "2 42988  97.4256 122.4924 0005429  89.9469 270.2395 15.32166002454541"
      },
      "geometry": {
        "type": "Point",
        "coordinates": [
          98.49363135240235,
          72.39821800271557
        ]
      }
    }
  ]
}